{
  "type": "FeatureCollection",
  "features": [
    {
      "type": "Feature",
      "properties": {
        "name": "Mas",
        "official_name": "Desa Mas",
        "admin_level": "7",
        "source": "OpenStreetMap relation 20447663 (BPS administrative boundary)",
        "note": "North corridor overlaps daily-life anchors shared with Lodtunduh on Jl. A.A. Gede Rai. Compare with Google Maps desa boundary before publishing."
      },
      "geometry": {
        "type": "Polygon",
        "coordinates": [
          [
            [
              115.268102,
              -8.561491
            ],
            [
              115.269084,
              -8.561575
            ],
            [
              115.269083,
              -8.561594
            ],
            [
              115.271248,
              -8.561711
            ],
            [
              115.27201,
              -8.56173
            ],
            [
              115.272468,
              -8.561787
            ],
            [
              115.273367,
              -8.56187
            ],
            [
              115.273916,
              -8.561969
            ],
            [
              115.27525,
              -8.562326
            ],
            [
              115.276152,
              -8.56221
            ],
            [
              115.276647,
              -8.562176
            ],
            [
              115.278328,
              -8.562119
            ],
            [
              115.27873,
              -8.562077
            ],
            [
              115.279099,
              -8.561982
            ],
            [
              115.279437,
              -8.561714
            ],
            [
              115.280058,
              -8.561069
            ],
            [
              115.280604,
              -8.560133
            ],
            [
              115.280966,
              -8.55938
            ],
            [
              115.281372,
              -8.558367
            ],
            [
              115.281745,
              -8.557323
            ],
            [
              115.281955,
              -8.55645
            ],
            [
              115.282186,
              -8.555696
            ],
            [
              115.282254,
              -8.555189
            ],
            [
              115.282299,
              -8.554639
            ],
            [
              115.282263,
              -8.554057
            ],
            [
              115.281716,
              -8.553278
            ],
            [
              115.281507,
              -8.552839
            ],
            [
              115.281022,
              -8.551186
            ],
            [
              115.281041,
              -8.550864
            ],
            [
              115.281044,
              -8.550451
            ],
            [
              115.280972,
              -8.550083
            ],
            [
              115.280815,
              -8.549706
            ],
            [
              115.28007,
              -8.548231
            ],
            [
              115.279731,
              -8.547255
            ],
            [
              115.279596,
              -8.546421
            ],
            [
              115.278401,
              -8.544195
            ],
            [
              115.278442,
              -8.543914
            ],
            [
              115.27862,
              -8.543259
            ],
            [
              115.278727,
              -8.542503
            ],
            [
              115.278665,
              -8.541916
            ],
            [
              115.278251,
              -8.539528
            ],
            [
              115.278317,
              -8.539082
            ],
            [
              115.278439,
              -8.538793
            ],
            [
              115.279328,
              -8.537397
            ],
            [
              115.279552,
              -8.536934
            ],
            [
              115.28001,
              -8.535685
            ],
            [
              115.280031,
              -8.535393
            ],
            [
              115.279925,
              -8.535224
            ],
            [
              115.279143,
              -8.534843
            ],
            [
              115.279025,
              -8.534678
            ],
            [
              115.279023,
              -8.534536
            ],
            [
              115.279116,
              -8.534187
            ],
            [
              115.279276,
              -8.533854
            ],
            [
              115.279553,
              -8.533467
            ],
            [
              115.279948,
              -8.533017
            ],
            [
              115.279961,
              -8.532825
            ],
            [
              115.279911,
              -8.532658
            ],
            [
              115.279588,
              -8.532212
            ],
            [
              115.27953,
              -8.532059
            ],
            [
              115.279507,
              -8.531832
            ],
            [
              115.279427,
              -8.531685
            ],
            [
              115.279276,
              -8.531566
            ],
            [
              115.278994,
              -8.531416
            ],
            [
              115.278718,
              -8.531186
            ],
            [
              115.278521,
              -8.530939
            ],
            [
              115.278408,
              -8.530706
            ],
            [
              115.278377,
              -8.530509
            ],
            [
              115.278502,
              -8.530105
            ],
            [
              115.278993,
              -8.529408
            ],
            [
              115.279244,
              -8.529026
            ],
            [
              115.265469,
              -8.523102
            ],
            [
              115.265544,
              -8.523456
            ],
            [
              115.265659,
              -8.523684
            ],
            [
              115.266266,
              -8.524227
            ],
            [
              115.266433,
              -8.524476
            ],
            [
              115.266505,
              -8.524726
            ],
            [
              115.266593,
              -8.525342
            ],
            [
              115.266591,
              -8.5259
            ],
            [
              115.266546,
              -8.526217
            ],
            [
              115.266475,
              -8.526565
            ],
            [
              115.266671,
              -8.526573
            ],
            [
              115.267299,
              -8.526705
            ],
            [
              115.267338,
              -8.527303
            ],
            [
              115.26735,
              -8.527777
            ],
            [
              115.267318,
              -8.528067
            ],
            [
              115.267246,
              -8.528214
            ],
            [
              115.266692,
              -8.52847
            ],
            [
              115.266499,
              -8.528546
            ],
            [
              115.266368,
              -8.528679
            ],
            [
              115.266307,
              -8.528895
            ],
            [
              115.266445,
              -8.530177
            ],
            [
              115.266397,
              -8.530862
            ],
            [
              115.266106,
              -8.531493
            ],
            [
              115.266327,
              -8.532503
            ],
            [
              115.266423,
              -8.532799
            ],
            [
              115.266613,
              -8.533051
            ],
            [
              115.266884,
              -8.533249
            ],
            [
              115.2672,
              -8.533438
            ],
            [
              115.267613,
              -8.534088
            ],
            [
              115.267806,
              -8.534496
            ],
            [
              115.268241,
              -8.534682
            ],
            [
              115.268723,
              -8.534763
            ],
            [
              115.269154,
              -8.534744
            ],
            [
              115.269528,
              -8.534674
            ],
            [
              115.269817,
              -8.534468
            ],
            [
              115.269998,
              -8.534204
            ],
            [
              115.270093,
              -8.533976
            ],
            [
              115.269953,
              -8.533516
            ],
            [
              115.269728,
              -8.532937
            ],
            [
              115.26966,
              -8.53254
            ],
            [
              115.269719,
              -8.532254
            ],
            [
              115.269737,
              -8.531963
            ],
            [
              115.269704,
              -8.531479
            ],
            [
              115.269629,
              -8.531163
            ],
            [
              115.269675,
              -8.530929
            ],
            [
              115.269672,
              -8.530264
            ],
            [
              115.270534,
              -8.530126
            ],
            [
              115.2711,
              -8.530114
            ],
            [
              115.272395,
              -8.530142
            ],
            [
              115.273542,
              -8.530118
            ],
            [
              115.273918,
              -8.530024
            ],
            [
              115.274751,
              -8.529655
            ],
            [
              115.275008,
              -8.529597
            ],
            [
              115.275391,
              -8.529577
            ],
            [
              115.276031,
              -8.529653
            ],
            [
              115.276457,
              -8.529684
            ],
            [
              115.276913,
              -8.529686
            ],
            [
              115.277296,
              -8.529644
            ],
            [
              115.278523,
              -8.529234
            ],
            [
              115.279244,
              -8.529026
            ],
            [
              115.25517,
              -8.520139
            ],
            [
              115.255765,
              -8.519813
            ],
            [
              115.256403,
              -8.519676
            ],
            [
              115.257034,
              -8.519706
            ],
            [
              115.257597,
              -8.519883
            ],
            [
              115.258217,
              -8.520177
            ],
            [
              115.258931,
              -8.52068
            ],
            [
              115.261134,
              -8.522294
            ],
            [
              115.26168,
              -8.522656
            ],
            [
              115.262068,
              -8.522865
            ],
            [
              115.262536,
              -8.523035
            ],
            [
              115.262981,
              -8.523105
            ],
            [
              115.263607,
              -8.523147
            ],
            [
              115.264221,
              -8.523217
            ],
            [
              115.265005,
              -8.523332
            ],
            [
              115.265469,
              -8.523102
            ],
            [
              115.254662,
              -8.531151
            ],
            [
              115.2548,
              -8.530944
            ],
            [
              115.254987,
              -8.530804
            ],
            [
              115.255553,
              -8.530431
            ],
            [
              115.255557,
              -8.530342
            ],
            [
              115.255485,
              -8.530199
            ],
            [
              115.255228,
              -8.529916
            ],
            [
              115.254909,
              -8.529481
            ],
            [
              115.254852,
              -8.529263
            ],
            [
              115.254868,
              -8.529065
            ],
            [
              115.255167,
              -8.528247
            ],
            [
              115.255093,
              -8.528068
            ],
            [
              115.2546,
              -8.527632
            ],
            [
              115.254594,
              -8.527543
            ],
            [
              115.254636,
              -8.527449
            ],
            [
              115.254731,
              -8.52692
            ],
            [
              115.254724,
              -8.526708
            ],
            [
              115.25464,
              -8.526514
            ],
            [
              115.254353,
              -8.526319
            ],
            [
              115.254134,
              -8.526189
            ],
            [
              115.25403,
              -8.52608
            ],
            [
              115.253978,
              -8.525647
            ],
            [
              115.254011,
              -8.525306
            ],
            [
              115.254226,
              -8.524714
            ],
            [
              115.254646,
              -8.523935
            ],
            [
              115.254618,
              -8.523832
            ],
            [
              115.25443,
              -8.523667
            ],
            [
              115.253996,
              -8.523591
            ],
            [
              115.253584,
              -8.523562
            ],
            [
              115.253468,
              -8.523503
            ],
            [
              115.253389,
              -8.523346
            ],
            [
              115.25336,
              -8.52311
            ],
            [
              115.253447,
              -8.522811
            ],
            [
              115.253506,
              -8.522689
            ],
            [
              115.25422,
              -8.522429
            ],
            [
              115.254525,
              -8.522224
            ],
            [
              115.254641,
              -8.522095
            ],
            [
              115.254781,
              -8.521174
            ],
            [
              115.255103,
              -8.520483
            ],
            [
              115.25517,
              -8.520139
            ],
            [
              115.254662,
              -8.531151
            ],
            [
              115.255259,
              -8.531187
            ],
            [
              115.256017,
              -8.531463
            ],
            [
              115.256352,
              -8.53149
            ],
            [
              115.257516,
              -8.531452
            ],
            [
              115.257975,
              -8.531419
            ],
            [
              115.258575,
              -8.531413
            ],
            [
              115.259262,
              -8.531451
            ],
            [
              115.260567,
              -8.531588
            ],
            [
              115.261519,
              -8.531803
            ],
            [
              115.262135,
              -8.531999
            ],
            [
              115.263016,
              -8.532319
            ],
            [
              115.263553,
              -8.532558
            ],
            [
              115.264128,
              -8.532752
            ],
            [
              115.264115,
              -8.532865
            ],
            [
              115.264524,
              -8.533651
            ],
            [
              115.265172,
              -8.53563
            ],
            [
              115.265133,
              -8.535915
            ],
            [
              115.265112,
              -8.536303
            ],
            [
              115.265243,
              -8.536786
            ],
            [
              115.26511,
              -8.537382
            ],
            [
              115.265099,
              -8.537823
            ],
            [
              115.264872,
              -8.538756
            ],
            [
              115.264885,
              -8.539764
            ],
            [
              115.265019,
              -8.540188
            ],
            [
              115.265066,
              -8.540478
            ],
            [
              115.265015,
              -8.541249
            ],
            [
              115.265116,
              -8.541589
            ],
            [
              115.265258,
              -8.541886
            ],
            [
              115.265491,
              -8.542295
            ],
            [
              115.265473,
              -8.542568
            ],
            [
              115.265299,
              -8.543428
            ],
            [
              115.264794,
              -8.544964
            ],
            [
              115.264732,
              -8.5455
            ],
            [
              115.264755,
              -8.545759
            ],
            [
              115.264827,
              -8.545843
            ],
            [
              115.264973,
              -8.545888
            ],
            [
              115.265663,
              -8.545871
            ],
            [
              115.265916,
              -8.545942
            ],
            [
              115.266143,
              -8.5461
            ],
            [
              115.266418,
              -8.546378
            ],
            [
              115.266596,
              -8.546712
            ],
            [
              115.266645,
              -8.546919
            ],
            [
              115.266606,
              -8.547112
            ],
            [
              115.266199,
              -8.548206
            ],
            [
              115.266229,
              -8.548466
            ],
            [
              115.266309,
              -8.548673
            ],
            [
              115.266487,
              -8.548929
            ],
            [
              115.267063,
              -8.549644
            ],
            [
              115.267039,
              -8.549844
            ],
            [
              115.266931,
              -8.550054
            ],
            [
              115.266745,
              -8.550226
            ],
            [
              115.266063,
              -8.55076
            ],
            [
              115.265619,
              -8.551002
            ],
            [
              115.265502,
              -8.551209
            ],
            [
              115.265435,
              -8.551542
            ],
            [
              115.265716,
              -8.552788
            ],
            [
              115.266066,
              -8.553547
            ],
            [
              115.266064,
              -8.553829
            ],
            [
              115.266105,
              -8.554011
            ],
            [
              115.266515,
              -8.554636
            ],
            [
              115.266788,
              -8.555167
            ],
            [
              115.267004,
              -8.555751
            ],
            [
              115.267506,
              -8.557662
            ],
            [
              115.267574,
              -8.558501
            ],
            [
              115.268017,
              -8.560142
            ],
            [
              115.268102,
              -8.561491
            ]
          ]
        ]
      }
    }
  ]
}