{
  "type": "FeatureCollection",
  "features": [
    {
      "type": "Feature",
      "properties": {
        "name": "Lodtunduh",
        "official_name": "Desa Lodtunduh",
        "admin_level": "7",
        "source": "OpenStreetMap relation 20447665 (BPS administrative boundary)",
        "note": "Compare with Google Maps desa boundary before publishing."
      },
      "geometry": {
        "type": "Polygon",
        "coordinates": [
          [
            [
              115.2566873,
              -8.5680528
            ],
            [
              115.256651,
              -8.567981
            ],
            [
              115.256629,
              -8.56777
            ],
            [
              115.256846,
              -8.566912
            ],
            [
              115.256805,
              -8.566731
            ],
            [
              115.25653,
              -8.566269
            ],
            [
              115.25643,
              -8.566065
            ],
            [
              115.256393,
              -8.565937
            ],
            [
              115.256388,
              -8.565758
            ],
            [
              115.2566,
              -8.564897
            ],
            [
              115.256589,
              -8.564666
            ],
            [
              115.256164,
              -8.564239
            ],
            [
              115.256063,
              -8.564025
            ],
            [
              115.256017,
              -8.563789
            ],
            [
              115.256136,
              -8.563165
            ],
            [
              115.256156,
              -8.562857
            ],
            [
              115.256096,
              -8.562493
            ],
            [
              115.255986,
              -8.562173
            ],
            [
              115.25564,
              -8.56165
            ],
            [
              115.254937,
              -8.559973
            ],
            [
              115.254834,
              -8.559633
            ],
            [
              115.25486,
              -8.558865
            ],
            [
              115.254851,
              -8.558639
            ],
            [
              115.254623,
              -8.557945
            ],
            [
              115.254579,
              -8.557733
            ],
            [
              115.254634,
              -8.557505
            ],
            [
              115.254832,
              -8.557243
            ],
            [
              115.255442,
              -8.556563
            ],
            [
              115.255534,
              -8.556438
            ],
            [
              115.255578,
              -8.556237
            ],
            [
              115.255578,
              -8.555906
            ],
            [
              115.255449,
              -8.555408
            ],
            [
              115.255311,
              -8.555081
            ],
            [
              115.255237,
              -8.554946
            ],
            [
              115.255208,
              -8.554663
            ],
            [
              115.25497,
              -8.553586
            ],
            [
              115.254813,
              -8.553048
            ],
            [
              115.254517,
              -8.552168
            ],
            [
              115.25442,
              -8.551451
            ],
            [
              115.254238,
              -8.550104
            ],
            [
              115.254219,
              -8.549849
            ],
            [
              115.254256,
              -8.549537
            ],
            [
              115.25429,
              -8.549407
            ],
            [
              115.254292,
              -8.549269
            ],
            [
              115.254237,
              -8.548473
            ],
            [
              115.254196,
              -8.548331
            ],
            [
              115.253455,
              -8.547718
            ],
            [
              115.253317,
              -8.547516
            ],
            [
              115.253242,
              -8.54704
            ],
            [
              115.253028,
              -8.546311
            ],
            [
              115.252956,
              -8.545869
            ],
            [
              115.252942,
              -8.545622
            ],
            [
              115.252865,
              -8.545429
            ],
            [
              115.252658,
              -8.545201
            ],
            [
              115.252451,
              -8.545047
            ],
            [
              115.252348,
              -8.544875
            ],
            [
              115.25231,
              -8.544731
            ],
            [
              115.252799,
              -8.544022
            ],
            [
              115.252911,
              -8.543824
            ],
            [
              115.252978,
              -8.543595
            ],
            [
              115.252979,
              -8.543419
            ],
            [
              115.252532,
              -8.542918
            ],
            [
              115.252418,
              -8.542769
            ],
            [
              115.252368,
              -8.542528
            ],
            [
              115.252412,
              -8.541713
            ],
            [
              115.252468,
              -8.541387
            ],
            [
              115.252573,
              -8.541127
            ],
            [
              115.252741,
              -8.540931
            ],
            [
              115.252957,
              -8.540811
            ],
            [
              115.253808,
              -8.540644
            ],
            [
              115.25397,
              -8.540601
            ],
            [
              115.254047,
              -8.540292
            ],
            [
              115.254045,
              -8.540075
            ],
            [
              115.25399,
              -8.539587
            ],
            [
              115.253973,
              -8.539147
            ],
            [
              115.253627,
              -8.53817
            ],
            [
              115.253448,
              -8.537357
            ],
            [
              115.253296,
              -8.536509
            ],
            [
              115.25324,
              -8.536084
            ],
            [
              115.253277,
              -8.535754
            ],
            [
              115.253408,
              -8.535463
            ],
            [
              115.253604,
              -8.535188
            ],
            [
              115.253897,
              -8.534914
            ],
            [
              115.254612,
              -8.534453
            ],
            [
              115.254783,
              -8.534284
            ],
            [
              115.254907,
              -8.534029
            ],
            [
              115.254964,
              -8.533773
            ],
            [
              115.254955,
              -8.533369
            ],
            [
              115.254915,
              -8.533173
            ],
            [
              115.254601,
              -8.533009
            ],
            [
              115.254502,
              -8.532879
            ],
            [
              115.254453,
              -8.532666
            ],
            [
              115.25442,
              -8.532363
            ],
            [
              115.254513,
              -8.531601
            ],
            [
              115.254662,
              -8.531151
            ],
            [
              115.255259,
              -8.531187
            ],
            [
              115.256017,
              -8.531463
            ],
            [
              115.256352,
              -8.53149
            ],
            [
              115.257516,
              -8.531452
            ],
            [
              115.257975,
              -8.531419
            ],
            [
              115.258575,
              -8.531413
            ],
            [
              115.259262,
              -8.531451
            ],
            [
              115.260567,
              -8.531588
            ],
            [
              115.261519,
              -8.531803
            ],
            [
              115.262135,
              -8.531999
            ],
            [
              115.263016,
              -8.532319
            ],
            [
              115.263553,
              -8.532558
            ],
            [
              115.264128,
              -8.532752
            ],
            [
              115.264115,
              -8.532865
            ],
            [
              115.264524,
              -8.533651
            ],
            [
              115.265172,
              -8.53563
            ],
            [
              115.265133,
              -8.535915
            ],
            [
              115.265112,
              -8.536303
            ],
            [
              115.265243,
              -8.536786
            ],
            [
              115.26511,
              -8.537382
            ],
            [
              115.265099,
              -8.537823
            ],
            [
              115.264872,
              -8.538756
            ],
            [
              115.264885,
              -8.539764
            ],
            [
              115.265019,
              -8.540188
            ],
            [
              115.265066,
              -8.540478
            ],
            [
              115.265015,
              -8.541249
            ],
            [
              115.265116,
              -8.541589
            ],
            [
              115.265258,
              -8.541886
            ],
            [
              115.265491,
              -8.542295
            ],
            [
              115.265473,
              -8.542568
            ],
            [
              115.265299,
              -8.543428
            ],
            [
              115.264794,
              -8.544964
            ],
            [
              115.264732,
              -8.5455
            ],
            [
              115.264755,
              -8.545759
            ],
            [
              115.264827,
              -8.545843
            ],
            [
              115.264973,
              -8.545888
            ],
            [
              115.265663,
              -8.545871
            ],
            [
              115.265916,
              -8.545942
            ],
            [
              115.266143,
              -8.5461
            ],
            [
              115.266418,
              -8.546378
            ],
            [
              115.266596,
              -8.546712
            ],
            [
              115.266645,
              -8.546919
            ],
            [
              115.266606,
              -8.547112
            ],
            [
              115.266199,
              -8.548206
            ],
            [
              115.266229,
              -8.548466
            ],
            [
              115.266309,
              -8.548673
            ],
            [
              115.266487,
              -8.548929
            ],
            [
              115.267063,
              -8.549644
            ],
            [
              115.267039,
              -8.549844
            ],
            [
              115.266931,
              -8.550054
            ],
            [
              115.266745,
              -8.550226
            ],
            [
              115.266063,
              -8.55076
            ],
            [
              115.265619,
              -8.551002
            ],
            [
              115.265502,
              -8.551209
            ],
            [
              115.265435,
              -8.551542
            ],
            [
              115.265716,
              -8.552788
            ],
            [
              115.266066,
              -8.553547
            ],
            [
              115.266064,
              -8.553829
            ],
            [
              115.266105,
              -8.554011
            ],
            [
              115.266515,
              -8.554636
            ],
            [
              115.266788,
              -8.555167
            ],
            [
              115.267004,
              -8.555751
            ],
            [
              115.267506,
              -8.557662
            ],
            [
              115.267574,
              -8.558501
            ],
            [
              115.268017,
              -8.560142
            ],
            [
              115.268102,
              -8.561491
            ],
            [
              115.268498,
              -8.575811
            ],
            [
              115.268473,
              -8.575284
            ],
            [
              115.268661,
              -8.574372
            ],
            [
              115.268672,
              -8.573956
            ],
            [
              115.268634,
              -8.573781
            ],
            [
              115.268479,
              -8.573461
            ],
            [
              115.268479,
              -8.572594
            ],
            [
              115.268417,
              -8.571868
            ],
            [
              115.268567,
              -8.571357
            ],
            [
              115.268551,
              -8.570523
            ],
            [
              115.268576,
              -8.570123
            ],
            [
              115.268465,
              -8.569654
            ],
            [
              115.268594,
              -8.569313
            ],
            [
              115.268543,
              -8.569024
            ],
            [
              115.268409,
              -8.568529
            ],
            [
              115.268369,
              -8.568169
            ],
            [
              115.268279,
              -8.566961
            ],
            [
              115.268309,
              -8.566418
            ],
            [
              115.268549,
              -8.56555
            ],
            [
              115.268494,
              -8.564868
            ],
            [
              115.268429,
              -8.56457
            ],
            [
              115.268102,
              -8.561491
            ],
            [
              115.263068,
              -8.577231
            ],
            [
              115.263798,
              -8.578242
            ],
            [
              115.26388,
              -8.578284
            ],
            [
              115.264003,
              -8.578407
            ],
            [
              115.264748,
              -8.578844
            ],
            [
              115.265074,
              -8.579009
            ],
            [
              115.26612,
              -8.578929
            ],
            [
              115.267426,
              -8.578907
            ],
            [
              115.26821,
              -8.578934
            ],
            [
              115.268289,
              -8.578535
            ],
            [
              115.268292,
              -8.578316
            ],
            [
              115.268067,
              -8.57776
            ],
            [
              115.268073,
              -8.577592
            ],
            [
              115.268443,
              -8.576905
            ],
            [
              115.268513,
              -8.576171
            ],
            [
              115.268498,
              -8.575811
            ],
            [
              115.263068,
              -8.577231
            ],
            [
              115.263134,
              -8.576803
            ],
            [
              115.263158,
              -8.576337
            ],
            [
              115.263133,
              -8.576126
            ],
            [
              115.263053,
              -8.575982
            ],
            [
              115.262886,
              -8.575859
            ],
            [
              115.26206,
              -8.575594
            ],
            [
              115.261884,
              -8.575495
            ],
            [
              115.261627,
              -8.575064
            ],
            [
              115.261018,
              -8.574734
            ],
            [
              115.260438,
              -8.574305
            ],
            [
              115.259349,
              -8.574202
            ],
            [
              115.259213,
              -8.574132
            ],
            [
              115.259138,
              -8.574042
            ],
            [
              115.259201,
              -8.572987
            ],
            [
              115.259106,
              -8.572801
            ],
            [
              115.258378,
              -8.572175
            ],
            [
              115.25818,
              -8.571988
            ],
            [
              115.258051,
              -8.571716
            ],
            [
              115.257941,
              -8.571311
            ],
            [
              115.257918,
              -8.571067
            ],
            [
              115.2581,
              -8.570419
            ],
            [
              115.258132,
              -8.570044
            ],
            [
              115.258101,
              -8.569785
            ],
            [
              115.258009,
              -8.569557
            ],
            [
              115.256956,
              -8.568431
            ],
            [
              115.256748,
              -8.568173
            ],
            [
              115.2566873,
              -8.5680528
            ]
          ]
        ]
      }
    }
  ]
}